STARLINK-37020          
1 68144U 26049C   26087.52744633  .00192498  00000+0  98066-3 0  9995
2 68144  97.2834 107.7012 0000989 132.9457 227.1894 15.80883846  2380
STARLINK-36244          
1 68145U 26049D   26087.83335647 -.00097749  00000+0 -66090-3 0  9998
2 68145  97.2846 108.0168 0001392  87.5444 192.8327 15.75227944  3701
STARLINK-36980          
1 68146U 26049E   26087.84320294  .00111322  00000+0  57369-3 0  9993
2 68146  97.2844 108.0370 0001051  99.6670 260.4717 15.80848245  2435
STARLINK-37055          
1 68147U 26049F   26087.84470411  .00103853  00000+0  53568-3 0  9998
2 68147  97.2844 108.0344 0000923  91.5582 268.5792 15.80849637  2435
STARLINK-36981          
1 68148U 26049G   26087.84170050  .00143130  00000+0  73415-3 0  9990
2 68148  97.2844 108.0384 0001459 101.5404 258.6028 15.80864627  2438
STARLINK-36992          
1 68149U 26049H   26087.84094963  .00049767  00000+0  25907-3 0  9993
2 68149  97.2845 108.0392 0001275 103.8373 256.3037 15.80816435  2434
STARLINK-37060          
1 68150U 26049J   26087.83335647 -.00021090  00000+0 -10961-3 0  9996
2 68150  97.2843 108.0334 0001520  78.3313 242.9020 15.80818598  3697
STARLINK-37073          
1 68151U 26049K   26087.83335647  .00016938  00000+0  89058-4 0  9994
2 68151  97.2844 108.0353 0001368  69.1099 256.3954 15.80800794  3693
STARLINK-37049          
1 68152U 26049L   26087.83335647  .00074799  00000+0  38859-3 0  9996
2 68152  97.2845 108.0373 0001256  91.3522 238.4285 15.80777235  3692
STARLINK-37072          
1 68153U 26049M   26087.83335647  .00003045  00000+0  16637-4 0  9994
2 68153  97.2845 108.0387 0001266 103.2939 230.7598 15.80811270  3694
STARLINK-36241          
1 68154U 26049N   26087.83335647 -.00004135  00000+0 -26892-4 0  9992
2 68154  97.2847 108.0263 0001373  93.8677 208.5260 15.75170680  3700
STARLINK-37048          
1 68155U 26049P   26087.83335647  .00008590  00000+0  45574-4 0  9998
2 68155  97.2843 108.0456 0001306  80.4359 270.7218 15.80800113  3695
