CCSDS_OMM_VERS = 2.0
CREATION_DATE  = 
ORIGINATOR     = 

OBJECT_NAME    = STARLINK-37020
OBJECT_ID      = 2026-049C
CENTER_NAME    = EARTH
REF_FRAME      = TEME
TIME_SYSTEM    = UTC
MEAN_ELEMENT_THEORY = SGP/SGP4

EPOCH          = 2026-03-28T12:39:31.362912
MEAN_MOTION    = 15.80883846
ECCENTRICITY   = .00009895
INCLINATION    = 97.2834
RA_OF_ASC_NODE = 107.7012
ARG_OF_PERICENTER = 132.9457
MEAN_ANOMALY   = 227.1894

EPHEMERIS_TYPE = 0
CLASSIFICATION_TYPE = U
NORAD_CAT_ID   = 68144
ELEMENT_SET_NO = 999
REV_AT_EPOCH   = 238
BSTAR          = .98066087E-3
MEAN_MOTION_DOT = .192498E-2
MEAN_MOTION_DDOT = 0

CCSDS_OMM_VERS = 2.0
CREATION_DATE  = 
ORIGINATOR     = 

OBJECT_NAME    = STARLINK-36244
OBJECT_ID      = 2026-049D
CENTER_NAME    = EARTH
REF_FRAME      = TEME
TIME_SYSTEM    = UTC
MEAN_ELEMENT_THEORY = SGP/SGP4

EPOCH          = 2026-03-28T20:00:01.999008
MEAN_MOTION    = 15.75227944
ECCENTRICITY   = .0001392
INCLINATION    = 97.2846
RA_OF_ASC_NODE = 108.0168
ARG_OF_PERICENTER = 87.5444
MEAN_ANOMALY   = 192.8327

EPHEMERIS_TYPE = 0
CLASSIFICATION_TYPE = U
NORAD_CAT_ID   = 68145
ELEMENT_SET_NO = 999
REV_AT_EPOCH   = 370
BSTAR          = -.6609E-3
MEAN_MOTION_DOT = -.97749E-3
MEAN_MOTION_DDOT = 0

CCSDS_OMM_VERS = 2.0
CREATION_DATE  = 
ORIGINATOR     = 

OBJECT_NAME    = STARLINK-36980
OBJECT_ID      = 2026-049E
CENTER_NAME    = EARTH
REF_FRAME      = TEME
TIME_SYSTEM    = UTC
MEAN_ELEMENT_THEORY = SGP/SGP4

EPOCH          = 2026-03-28T20:14:12.734016
MEAN_MOTION    = 15.80848245
ECCENTRICITY   = .0001051
INCLINATION    = 97.2844
RA_OF_ASC_NODE = 108.0370
ARG_OF_PERICENTER = 99.6670
MEAN_ANOMALY   = 260.4717

EPHEMERIS_TYPE = 0
CLASSIFICATION_TYPE = U
NORAD_CAT_ID   = 68146
ELEMENT_SET_NO = 999
REV_AT_EPOCH   = 243
BSTAR          = .57369E-3
MEAN_MOTION_DOT = .111322E-2
MEAN_MOTION_DDOT = 0

CCSDS_OMM_VERS = 2.0
CREATION_DATE  = 
ORIGINATOR     = 

OBJECT_NAME    = STARLINK-37055
OBJECT_ID      = 2026-049F
CENTER_NAME    = EARTH
REF_FRAME      = TEME
TIME_SYSTEM    = UTC
MEAN_ELEMENT_THEORY = SGP/SGP4

EPOCH          = 2026-03-28T20:16:22.435104
MEAN_MOTION    = 15.80849637
ECCENTRICITY   = .0000923
INCLINATION    = 97.2844
RA_OF_ASC_NODE = 108.0344
ARG_OF_PERICENTER = 91.5582
MEAN_ANOMALY   = 268.5792

EPHEMERIS_TYPE = 0
CLASSIFICATION_TYPE = U
NORAD_CAT_ID   = 68147
ELEMENT_SET_NO = 999
REV_AT_EPOCH   = 243
BSTAR          = .53568E-3
MEAN_MOTION_DOT = .103853E-2
MEAN_MOTION_DDOT = 0

CCSDS_OMM_VERS = 2.0
CREATION_DATE  = 
ORIGINATOR     = 

OBJECT_NAME    = STARLINK-36981
OBJECT_ID      = 2026-049G
CENTER_NAME    = EARTH
REF_FRAME      = TEME
TIME_SYSTEM    = UTC
MEAN_ELEMENT_THEORY = SGP/SGP4

EPOCH          = 2026-03-28T20:12:02.923200
MEAN_MOTION    = 15.80864627
ECCENTRICITY   = .0001459
INCLINATION    = 97.2844
RA_OF_ASC_NODE = 108.0384
ARG_OF_PERICENTER = 101.5404
MEAN_ANOMALY   = 258.6028

EPHEMERIS_TYPE = 0
CLASSIFICATION_TYPE = U
NORAD_CAT_ID   = 68148
ELEMENT_SET_NO = 999
REV_AT_EPOCH   = 243
BSTAR          = .73415E-3
MEAN_MOTION_DOT = .14313E-2
MEAN_MOTION_DDOT = 0

CCSDS_OMM_VERS = 2.0
CREATION_DATE  = 
ORIGINATOR     = 

OBJECT_NAME    = STARLINK-36992
OBJECT_ID      = 2026-049H
CENTER_NAME    = EARTH
REF_FRAME      = TEME
TIME_SYSTEM    = UTC
MEAN_ELEMENT_THEORY = SGP/SGP4

EPOCH          = 2026-03-28T20:10:58.048032
MEAN_MOTION    = 15.80816435
ECCENTRICITY   = .0001275
INCLINATION    = 97.2845
RA_OF_ASC_NODE = 108.0392
ARG_OF_PERICENTER = 103.8373
MEAN_ANOMALY   = 256.3037

EPHEMERIS_TYPE = 0
CLASSIFICATION_TYPE = U
NORAD_CAT_ID   = 68149
ELEMENT_SET_NO = 999
REV_AT_EPOCH   = 243
BSTAR          = .25907E-3
MEAN_MOTION_DOT = .49767E-3
MEAN_MOTION_DDOT = 0

CCSDS_OMM_VERS = 2.0
CREATION_DATE  = 
ORIGINATOR     = 

OBJECT_NAME    = STARLINK-37060
OBJECT_ID      = 2026-049J
CENTER_NAME    = EARTH
REF_FRAME      = TEME
TIME_SYSTEM    = UTC
MEAN_ELEMENT_THEORY = SGP/SGP4

EPOCH          = 2026-03-28T20:00:01.999008
MEAN_MOTION    = 15.80818598
ECCENTRICITY   = .000152
INCLINATION    = 97.2843
RA_OF_ASC_NODE = 108.0334
ARG_OF_PERICENTER = 78.3313
MEAN_ANOMALY   = 242.9020

EPHEMERIS_TYPE = 0
CLASSIFICATION_TYPE = U
NORAD_CAT_ID   = 68150
ELEMENT_SET_NO = 999
REV_AT_EPOCH   = 369
BSTAR          = -.10961E-3
MEAN_MOTION_DOT = -.2109E-3
MEAN_MOTION_DDOT = 0

CCSDS_OMM_VERS = 2.0
CREATION_DATE  = 
ORIGINATOR     = 

OBJECT_NAME    = STARLINK-37073
OBJECT_ID      = 2026-049K
CENTER_NAME    = EARTH
REF_FRAME      = TEME
TIME_SYSTEM    = UTC
MEAN_ELEMENT_THEORY = SGP/SGP4

EPOCH          = 2026-03-28T20:00:01.999008
MEAN_MOTION    = 15.80800794
ECCENTRICITY   = .0001368
INCLINATION    = 97.2844
RA_OF_ASC_NODE = 108.0353
ARG_OF_PERICENTER = 69.1099
MEAN_ANOMALY   = 256.3954

EPHEMERIS_TYPE = 0
CLASSIFICATION_TYPE = U
NORAD_CAT_ID   = 68151
ELEMENT_SET_NO = 999
REV_AT_EPOCH   = 369
BSTAR          = .89058E-4
MEAN_MOTION_DOT = .16938E-3
MEAN_MOTION_DDOT = 0

CCSDS_OMM_VERS = 2.0
CREATION_DATE  = 
ORIGINATOR     = 

OBJECT_NAME    = STARLINK-37049
OBJECT_ID      = 2026-049L
CENTER_NAME    = EARTH
REF_FRAME      = TEME
TIME_SYSTEM    = UTC
MEAN_ELEMENT_THEORY = SGP/SGP4

EPOCH          = 2026-03-28T20:00:01.999008
MEAN_MOTION    = 15.80777235
ECCENTRICITY   = .0001256
INCLINATION    = 97.2845
RA_OF_ASC_NODE = 108.0373
ARG_OF_PERICENTER = 91.3522
MEAN_ANOMALY   = 238.4285

EPHEMERIS_TYPE = 0
CLASSIFICATION_TYPE = U
NORAD_CAT_ID   = 68152
ELEMENT_SET_NO = 999
REV_AT_EPOCH   = 369
BSTAR          = .38859E-3
MEAN_MOTION_DOT = .74799E-3
MEAN_MOTION_DDOT = 0

CCSDS_OMM_VERS = 2.0
CREATION_DATE  = 
ORIGINATOR     = 

OBJECT_NAME    = STARLINK-37072
OBJECT_ID      = 2026-049M
CENTER_NAME    = EARTH
REF_FRAME      = TEME
TIME_SYSTEM    = UTC
MEAN_ELEMENT_THEORY = SGP/SGP4

EPOCH          = 2026-03-28T20:00:01.999008
MEAN_MOTION    = 15.80811270
ECCENTRICITY   = .0001266
INCLINATION    = 97.2845
RA_OF_ASC_NODE = 108.0387
ARG_OF_PERICENTER = 103.2939
MEAN_ANOMALY   = 230.7598

EPHEMERIS_TYPE = 0
CLASSIFICATION_TYPE = U
NORAD_CAT_ID   = 68153
ELEMENT_SET_NO = 999
REV_AT_EPOCH   = 369
BSTAR          = .16637E-4
MEAN_MOTION_DOT = .3045E-4
MEAN_MOTION_DDOT = 0

CCSDS_OMM_VERS = 2.0
CREATION_DATE  = 
ORIGINATOR     = 

OBJECT_NAME    = STARLINK-36241
OBJECT_ID      = 2026-049N
CENTER_NAME    = EARTH
REF_FRAME      = TEME
TIME_SYSTEM    = UTC
MEAN_ELEMENT_THEORY = SGP/SGP4

EPOCH          = 2026-03-28T20:00:01.999008
MEAN_MOTION    = 15.75170680
ECCENTRICITY   = .0001373
INCLINATION    = 97.2847
RA_OF_ASC_NODE = 108.0263
ARG_OF_PERICENTER = 93.8677
MEAN_ANOMALY   = 208.5260

EPHEMERIS_TYPE = 0
CLASSIFICATION_TYPE = U
NORAD_CAT_ID   = 68154
ELEMENT_SET_NO = 999
REV_AT_EPOCH   = 370
BSTAR          = -.26892E-4
MEAN_MOTION_DOT = -.4135E-4
MEAN_MOTION_DDOT = 0

CCSDS_OMM_VERS = 2.0
CREATION_DATE  = 
ORIGINATOR     = 

OBJECT_NAME    = STARLINK-37048
OBJECT_ID      = 2026-049P
CENTER_NAME    = EARTH
REF_FRAME      = TEME
TIME_SYSTEM    = UTC
MEAN_ELEMENT_THEORY = SGP/SGP4

EPOCH          = 2026-03-28T20:00:01.999008
MEAN_MOTION    = 15.80800113
ECCENTRICITY   = .0001306
INCLINATION    = 97.2843
RA_OF_ASC_NODE = 108.0456
ARG_OF_PERICENTER = 80.4359
MEAN_ANOMALY   = 270.7218

EPHEMERIS_TYPE = 0
CLASSIFICATION_TYPE = U
NORAD_CAT_ID   = 68155
ELEMENT_SET_NO = 999
REV_AT_EPOCH   = 369
BSTAR          = .45574E-4
MEAN_MOTION_DOT = .859E-4
MEAN_MOTION_DDOT = 0

